{"type": "FeatureCollection", "features": [{"type": "Feature", "geometry": {"type": "Point", "coordinates": [144.96525304364877, -37.798714908049185]}, "properties": {"name": "Kathleen Syme Library and Community Centre", "category": "Community Centre", "group": "indoor", "hours": "Mo-Th 10:00-19:00; Fr 13:00-18:00; Sa 10:00-16:00; Su 12:00-16:00", "access": "", "address": "251 Faraday Street", "website": "https://www.melbourne.vic.gov.au/kathleen-syme-library-and-community-centre"}}, {"type": "Feature", "geometry": {"type": "Point", "coordinates": [144.9472336446553, -37.81957342832982]}, "properties": {"name": "The Hub @ Docklands", "category": "Community Centre", "group": "indoor", "hours": "Mo-Fr 08:30-17:00", "access": "", "address": "80 Harbour Esplanade Docklands", "website": "https://www.melbourne.vic.gov.au/CommunityServices/CommunityFacilities/Pages/TheHub@Docklands.aspx"}}, {"type": "Feature", "geometry": {"type": "Point", "coordinates": [144.939977, -37.8200635]}, "properties": {"name": "Facility", "category": "Facility", "group": "indoor", "hours": "", "access": "", "address": "", "website": ""}}, {"type": "Feature", "geometry": {"type": "Point", "coordinates": [144.93986763130619, -37.82014496624577]}, "properties": {"name": "Community Hub at the Dock", "category": "Community Centre", "group": "indoor", "hours": "", "access": "", "address": "912 Collins Street Docklands", "website": ""}}, {"type": "Feature", "geometry": {"type": "Point", "coordinates": [144.9837392943581, -37.814584711164095]}, "properties": {"name": "Holy Trinity Parish Hall", "category": "Community Centre", "group": "indoor", "hours": "", "access": "", "address": "16-18 Trinity Place East Melbourne", "website": ""}}, {"type": "Feature", "geometry": {"type": "Point", "coordinates": [144.9725206, -37.8229072]}, "properties": {"name": "Camp Sovereignty", "category": "Community Centre", "group": "indoor", "hours": "", "access": "", "address": "", "website": "https://en.wikipedia.org/wiki/Camp_Sovereignty"}}, {"type": "Feature", "geometry": {"type": "Point", "coordinates": [144.9279309, -37.7971809]}, "properties": {"name": "Kensington Community Food Forest", "category": "Community Centre", "group": "indoor", "hours": "", "access": "", "address": "", "website": ""}}, {"type": "Feature", "geometry": {"type": "Point", "coordinates": [144.92366339171224, -37.797156251347594]}, "properties": {"name": "The Venny", "category": "Community Centre", "group": "indoor", "hours": "", "access": "", "address": "85 Kensington Road Kensington", "website": "https://thevenny.org.au"}}, {"type": "Feature", "geometry": {"type": "Point", "coordinates": [144.9282933, -37.789378]}, "properties": {"name": "Kensington Compost Hub", "category": "Community Centre", "group": "indoor", "hours": "24/7", "access": "", "address": "", "website": "http://fb.me/KensingtonCompostHub"}}, {"type": "Feature", "geometry": {"type": "Point", "coordinates": [144.9278936, -37.7932419]}, "properties": {"name": "Kensington Neighbourhood House", "category": "Community Centre", "group": "indoor", "hours": "", "access": "", "address": "", "website": ""}}, {"type": "Feature", "geometry": {"type": "Point", "coordinates": [144.9732897, -37.8351357]}, "properties": {"name": "Alan Roberts International Medical Graduates Support & Advisory Services (ARIMGSAS)", "category": "Community Centre", "group": "indoor", "hours": "Mo-Fr 08:30-16:30; Sa-Su 09:00-17:00", "access": "", "address": "3 Bowen Crescent", "website": "https://www.arimgsas.com.au/"}}, {"type": "Feature", "geometry": {"type": "Point", "coordinates": [144.9605573, -37.8067602]}, "properties": {"name": "Drill Hall (for Praying Jum'ah)", "category": "Community Centre", "group": "indoor", "hours": "Fr 12:00-14:00", "access": "", "address": "26 Therry Street", "website": ""}}, {"type": "Feature", "geometry": {"type": "Point", "coordinates": [144.9496058, -37.8040691]}, "properties": {"name": "Lithuanian Club", "category": "Community Centre", "group": "indoor", "hours": "", "access": "", "address": "44 Errol Street North Melbourne", "website": "https://www.lithuanianclub.com/"}}, {"type": "Feature", "geometry": {"type": "Point", "coordinates": [144.9497259, -37.8037537]}, "properties": {"name": "The Centre", "category": "Community Centre", "group": "indoor", "hours": "Mo 10:00-18:00; Tu-Fr 10:00-15:00; Sa-Su off; PH off", "access": "", "address": "58 Errol Street North Melbourne", "website": "http://www.centre.org.au"}}, {"type": "Feature", "geometry": {"type": "Point", "coordinates": [144.9507234, -37.8033394]}, "properties": {"name": "Czech House", "category": "Community Centre", "group": "indoor", "hours": "", "access": "", "address": "497 Queensberry Street North Melbourne", "website": ""}}, {"type": "Feature", "geometry": {"type": "Point", "coordinates": [144.9418947, -37.7929334]}, "properties": {"name": "Facility", "category": "Facility", "group": "indoor", "hours": "", "access": "", "address": "", "website": ""}}, {"type": "Feature", "geometry": {"type": "Point", "coordinates": [144.93889839982023, -37.79153812020418]}, "properties": {"name": "AMSSA Youth Connect", "category": "Community Centre", "group": "indoor", "hours": "", "access": "", "address": "91-101 Boundary Road North Melbourne", "website": ""}}, {"type": "Feature", "geometry": {"type": "Point", "coordinates": [144.94180856437245, -37.79300384983909]}, "properties": {"name": "Jean McKendry Neighbourhood Centre", "category": "Community Centre", "group": "indoor", "hours": "", "access": "", "address": "91-111 Melrose Street", "website": ""}}, {"type": "Feature", "geometry": {"type": "Point", "coordinates": [144.9553273, -37.8059797]}, "properties": {"name": "Victorian Elderly Chinese Welfare Society", "category": "Community Centre", "group": "indoor", "hours": "", "access": "", "address": "", "website": ""}}, {"type": "Feature", "geometry": {"type": "Point", "coordinates": [144.95415815239292, -37.84904917821273]}, "properties": {"name": "Mary Kehoe Community Centre", "category": "Community Centre", "group": "indoor", "hours": "", "access": "", "address": "", "website": ""}}, {"type": "Feature", "geometry": {"type": "Point", "coordinates": [144.9619835307387, -37.83664730578752]}, "properties": {"name": "Koolin-ngal Family Centre", "category": "Community Centre", "group": "indoor", "hours": "", "access": "", "address": "400 Clarendon Street", "website": ""}}, {"type": "Feature", "geometry": {"type": "Point", "coordinates": [144.98598687218382, -37.87312377264536]}, "properties": {"name": "Community Centre", "category": "Community Centre", "group": "indoor", "hours": "", "access": "", "address": "", "website": ""}}, {"type": "Feature", "geometry": {"type": "Point", "coordinates": [144.9880893064005, -37.87150443956544]}, "properties": {"name": "Latvian House", "category": "Community Centre", "group": "indoor", "hours": "Sa 10:00-17:00", "access": "", "address": "51 Dickens Street Elwood", "website": "https://www.latvianhousemelbourne.com.au/"}}, {"type": "Feature", "geometry": {"type": "Point", "coordinates": [144.9477124159059, -37.83534967174967]}, "properties": {"name": "Community Room", "category": "Community Centre", "group": "indoor", "hours": "", "access": "", "address": "40 Raglan Street", "website": ""}}, {"type": "Feature", "geometry": {"type": "Point", "coordinates": [144.94158676904544, -37.8379003585152]}, "properties": {"name": "Port Melbourne Neighbourhood Centre", "category": "Community Centre", "group": "indoor", "hours": "Mo-Fr 09:30-16:30", "access": "", "address": "Port Melbourne", "website": "https://www.pmnc.org.au/"}}, {"type": "Feature", "geometry": {"type": "Point", "coordinates": [144.92051023984772, -37.83659542750749]}, "properties": {"name": "Fishermans Bend Community Centre", "category": "Community Centre", "group": "indoor", "hours": "", "access": "", "address": "", "website": ""}}, {"type": "Feature", "geometry": {"type": "Point", "coordinates": [144.9521887, -37.8337727]}, "properties": {"name": "Sol Green Community Centre", "category": "Community Centre", "group": "indoor", "hours": "", "access": "", "address": "South Melbourne", "website": ""}}, {"type": "Feature", "geometry": {"type": "Point", "coordinates": [144.9571138, -37.8346488]}, "properties": {"name": "Studio Hall", "category": "Community Centre", "group": "indoor", "hours": "", "access": "", "address": "317-329 Dorcas Street", "website": "https://www.studiohallsouthmelbourne.com.au/"}}, {"type": "Feature", "geometry": {"type": "Point", "coordinates": [144.9578142168788, -37.836810467805776]}, "properties": {"name": "South Melbourne Community Centre", "category": "Community Centre", "group": "indoor", "hours": "", "access": "", "address": "", "website": ""}}, {"type": "Feature", "geometry": {"type": "Point", "coordinates": [144.9764703279591, -37.86086633268797]}, "properties": {"name": "Victorian Pride Centre", "category": "Community Centre", "group": "indoor", "hours": "", "access": "", "address": "79-81 Fitzroy Street", "website": ""}}, {"type": "Feature", "geometry": {"type": "Point", "coordinates": [144.9981394, -37.8523365]}, "properties": {"name": "Prahran RSL", "category": "Community Centre", "group": "indoor", "hours": "", "access": "", "address": "301 High Street", "website": "https://www.stonnington.vic.gov.au/Community/Venue-hire/Prahran-RSL"}}, {"type": "Feature", "geometry": {"type": "Point", "coordinates": [145.00457396800923, -37.85895011585775]}, "properties": {"name": "German Club Tivoli", "category": "Community Centre", "group": "indoor", "hours": "", "access": "", "address": "291-295 Dandenong Road", "website": ""}}, {"type": "Feature", "geometry": {"type": "Point", "coordinates": [144.9940097843638, -37.80452772241665]}, "properties": {"name": "Stanton Street Hall", "category": "Community Centre", "group": "indoor", "hours": "", "access": "", "address": "", "website": ""}}, {"type": "Feature", "geometry": {"type": "Point", "coordinates": [144.9933831910455, -37.80349255633589]}, "properties": {"name": "Djerring Centre", "category": "Community Centre", "group": "indoor", "hours": "", "access": "", "address": "Eddy Court Abbotsford", "website": ""}}, {"type": "Feature", "geometry": {"type": "Point", "coordinates": [144.97517749647633, -37.792597939786575]}, "properties": {"name": "Carlton Neighbourhood Learning Centre", "category": "Community Centre", "group": "indoor", "hours": "", "access": "", "address": "20 Princes Street", "website": ""}}, {"type": "Feature", "geometry": {"type": "Point", "coordinates": [144.99040237697704, -37.80130535077649]}, "properties": {"name": "Dight Street Community Centre", "category": "Community Centre", "group": "indoor", "hours": "", "access": "", "address": "", "website": ""}}, {"type": "Feature", "geometry": {"type": "Point", "coordinates": [144.9920901278879, -37.800729497550996]}, "properties": {"name": "Yarra Men's Shed", "category": "Community Centre", "group": "indoor", "hours": "", "access": "", "address": "", "website": "https://www.yarracity.vic.gov.au/Community/Yarra-Mens-Shed-/"}}, {"type": "Feature", "geometry": {"type": "Point", "coordinates": [144.98831216096087, -37.79583537732023]}, "properties": {"name": "Crossroads", "category": "Community Centre", "group": "indoor", "hours": "", "access": "", "address": "364-368 Wellington Street Collingwood", "website": ""}}, {"type": "Feature", "geometry": {"type": "Point", "coordinates": [144.9824557240054, -37.80041070253201]}, "properties": {"name": "Russian House", "category": "Community Centre", "group": "indoor", "hours": "", "access": "", "address": "", "website": "https://russianhousemelbourne.org.au/"}}, {"type": "Feature", "geometry": {"type": "Point", "coordinates": [144.9816221407778, -37.80182468601539]}, "properties": {"name": "St Mark's Community Centre", "category": "Community Centre", "group": "indoor", "hours": "", "access": "", "address": "250-260 George Street", "website": "https://www.stmarksfitzroy.com/centre/"}}, {"type": "Feature", "geometry": {"type": "Point", "coordinates": [144.98026302975157, -37.80331631644254]}, "properties": {"name": "Yarra Community Youth Centre", "category": "Community Centre", "group": "indoor", "hours": "", "access": "", "address": "156 Napier Street Fitzroy", "website": ""}}, {"type": "Feature", "geometry": {"type": "Point", "coordinates": [144.9803603334031, -37.78688851423185]}, "properties": {"name": "Bocskai Centre", "category": "Community Centre", "group": "indoor", "hours": "", "access": "", "address": "123 St Georges Road", "website": ""}}, {"type": "Feature", "geometry": {"type": "Point", "coordinates": [144.98248693469696, -37.78575139327799]}, "properties": {"name": "Emely Baker Centre", "category": "Community Centre", "group": "indoor", "hours": "", "access": "", "address": "100G St Georges Road", "website": ""}}, {"type": "Feature", "geometry": {"type": "Point", "coordinates": [144.985308262297, -37.78506101394769]}, "properties": {"name": "Mark Street Hall", "category": "Community Centre", "group": "indoor", "hours": "", "access": "", "address": "", "website": ""}}, {"type": "Feature", "geometry": {"type": "Point", "coordinates": [145.03267609899387, -37.782339191185066]}, "properties": {"name": "1st Alphington Scout Group", "category": "Community Centre", "group": "indoor", "hours": "", "access": "", "address": "7 Adams Street", "website": ""}}, {"type": "Feature", "geometry": {"type": "Point", "coordinates": [144.9972939, -37.8138993]}, "properties": {"name": "Operation Stitches Community Centre", "category": "Community Centre", "group": "indoor", "hours": "", "access": "", "address": "1 Vere Street Richmond", "website": "http://www.stitches.org.au/"}}, {"type": "Feature", "geometry": {"type": "Point", "coordinates": [144.85398593012906, -37.786432962161726]}, "properties": {"name": "Braybrook Community Hub", "category": "Community Centre", "group": "indoor", "hours": "", "access": "", "address": "107-139 Churchill Avenue", "website": ""}}, {"type": "Feature", "geometry": {"type": "Point", "coordinates": [144.90658059095483, -37.796536915410584]}, "properties": {"name": "Angliss Seniors Centre", "category": "Community Centre", "group": "indoor", "hours": "", "access": "", "address": "", "website": ""}}, {"type": "Feature", "geometry": {"type": "Point", "coordinates": [144.90702798858965, -37.79723778682011]}, "properties": {"name": "Angliss Neighbourhood House", "category": "Community Centre", "group": "indoor", "hours": "Tu,Th 09:30-14:30", "access": "", "address": "11 Vipont Street", "website": ""}}, {"type": "Feature", "geometry": {"type": "Point", "coordinates": [144.88789370092283, -37.79887609158272]}, "properties": {"name": "Footscray Drill Hall", "category": "Community Centre", "group": "indoor", "hours": "", "access": "", "address": "395 Barkly Street", "website": ""}}, {"type": "Feature", "geometry": {"type": "Point", "coordinates": [144.90351788227883, -37.80435189133619]}, "properties": {"name": "Philippine House", "category": "Community Centre", "group": "indoor", "hours": "", "access": "", "address": "93 Cowper Street Footscray", "website": "https://fccvi.org.au/"}}, {"type": "Feature", "geometry": {"type": "Point", "coordinates": [144.90412060257952, -37.80409898763874]}, "properties": {"name": "Croatian House", "category": "Community Centre", "group": "indoor", "hours": "", "access": "", "address": "72-82 Whitehall Street Footscray", "website": "http://www.ahdmelbourne.com.au/"}}, {"type": "Feature", "geometry": {"type": "Point", "coordinates": [144.89574929999998, -37.80126210000001]}, "properties": {"name": "African Australian Community Centre", "category": "Community Centre", "group": "indoor", "hours": "", "access": "", "address": "30A Pickett Street", "website": ""}}, {"type": "Feature", "geometry": {"type": "Point", "coordinates": [144.89542307524445, -37.80332152563348]}, "properties": {"name": "Phoenix Youth Centre", "category": "Community Centre", "group": "indoor", "hours": "", "access": "", "address": "72 Buckley Street Footscray", "website": ""}}, {"type": "Feature", "geometry": {"type": "Point", "coordinates": [144.8983429891575, -37.8038101863199]}, "properties": {"name": "Hotshots Footscray", "category": "Community Centre", "group": "indoor", "hours": "Mo, Th-Sa 09:00-01:00", "access": "", "address": "16 Buckley Street Footscray", "website": "https://hotshotsfootscray.wordpress.com/"}}, {"type": "Feature", "geometry": {"type": "Point", "coordinates": [144.8875906704331, -37.76718565364869]}, "properties": {"name": "Maribyrnong Community Centre", "category": "Community Centre", "group": "indoor", "hours": "", "access": "", "address": "", "website": ""}}, {"type": "Feature", "geometry": {"type": "Point", "coordinates": [144.89356357270148, -37.809876305898264]}, "properties": {"name": "Adventist Community Centre Seddon", "category": "Community Centre", "group": "indoor", "hours": "", "access": "", "address": "4-10 Mackay Street", "website": ""}}, {"type": "Feature", "geometry": {"type": "Point", "coordinates": [144.8776450465348, -37.807513683639755]}, "properties": {"name": "Kingsville Community", "category": "Community Centre", "group": "indoor", "hours": "", "access": "", "address": "319 Geelong Road", "website": "https://www.unitingagewell.org/our-services/residential-care/kingsville-community"}}, {"type": "Feature", "geometry": {"type": "Point", "coordinates": [144.8861758066984, -37.817855529994276]}, "properties": {"name": "Yarraville Community Centre", "category": "Community Centre", "group": "indoor", "hours": "", "access": "", "address": "114 Blackwood Street Yarraville", "website": "https://www.ycc.net.au/"}}, {"type": "Feature", "geometry": {"type": "Point", "coordinates": [144.89286112284088, -37.82172076304166]}, "properties": {"name": "Yarraville Community Centre", "category": "Community Centre", "group": "indoor", "hours": "", "access": "", "address": "59 Francis Street Yarraville", "website": "https://www.ycc.net.au/"}}, {"type": "Feature", "geometry": {"type": "Point", "coordinates": [144.9640939, -37.8059656]}, "properties": {"name": "RMIT Carlton Library", "category": "Library", "group": "indoor", "hours": "", "access": "", "address": "", "website": ""}}, {"type": "Feature", "geometry": {"type": "Point", "coordinates": [144.9597833, -37.8023777]}, "properties": {"name": "Law Library", "category": "Library", "group": "indoor", "hours": "", "access": "permissive", "address": "", "website": "https://library.unimelb.edu.au/"}}, {"type": "Feature", "geometry": {"type": "Point", "coordinates": [144.9593581, -37.8011727]}, "properties": {"name": "Giblin Eunson Library", "category": "Library", "group": "indoor", "hours": "", "access": "permissive", "address": "", "website": "https://library.unimelb.edu.au/"}}, {"type": "Feature", "geometry": {"type": "Point", "coordinates": [144.94054450413645, -37.82002039787025]}, "properties": {"name": "Library at the Dock", "category": "Library", "group": "indoor", "hours": "Mo-Fr 08:00-19:00; Sa 10:00-17:00; Su 12:00-17:00", "access": "", "address": "107-117 Victoria Harbour Promenade Docklands", "website": "https://www.melbourne.vic.gov.au/community/libraries/locations/Pages/locations.aspx"}}, {"type": "Feature", "geometry": {"type": "Point", "coordinates": [144.9407574, -37.8200502]}, "properties": {"name": "Facility", "category": "Facility", "group": "indoor", "hours": "", "access": "", "address": "", "website": ""}}, {"type": "Feature", "geometry": {"type": "Point", "coordinates": [144.9405076, -37.8201224]}, "properties": {"name": "After Hours Entrance", "category": "Facility", "group": "indoor", "hours": "", "access": "", "address": "", "website": ""}}, {"type": "Feature", "geometry": {"type": "Point", "coordinates": [144.98639915836554, -37.815056136372256]}, "properties": {"name": "East Melbourne Library and Community Centre", "category": "Library", "group": "indoor", "hours": "", "access": "", "address": "120-126 George Street East Melbourne", "website": ""}}, {"type": "Feature", "geometry": {"type": "Point", "coordinates": [144.96825669095273, -37.8232884344209]}, "properties": {"name": "NGV Library", "category": "Library", "group": "indoor", "hours": "", "access": "", "address": "", "website": ""}}, {"type": "Feature", "geometry": {"type": "Point", "coordinates": [144.9692009, -37.8245882]}, "properties": {"name": "Southbank Library", "category": "Library", "group": "indoor", "hours": "", "access": "", "address": "", "website": "https://library.unimelb.edu.au/southbank-library"}}, {"type": "Feature", "geometry": {"type": "Point", "coordinates": [144.9305058, -37.7884252]}, "properties": {"name": "Flemington Library", "category": "Library", "group": "indoor", "hours": "", "access": "", "address": "", "website": "https://libraries.mvcc.vic.gov.au/location-hours#flemingtonLib"}}, {"type": "Feature", "geometry": {"type": "Point", "coordinates": [144.95934387287775, -37.798359592475386]}, "properties": {"name": "Baillieu Library", "category": "Library", "group": "indoor", "hours": "Mo-Th 09:00-20:00; Fr 09:00-17:00; Sa,Su 11:00-17:00", "access": "permissive", "address": "11 Professors Walk", "website": "https://library.unimelb.edu.au/"}}, {"type": "Feature", "geometry": {"type": "Point", "coordinates": [144.96282026323433, -37.79936375799558]}, "properties": {"name": "Eastern Resource Centre Library (Building 171)", "category": "Library", "group": "indoor", "hours": "Mo-Th 09:00-20:00; Fr 09:00-17:00; Sa,Su 11:00-17:00", "access": "private", "address": "2 Porters Lane", "website": "https://library.unimelb.edu.au/"}}, {"type": "Feature", "geometry": {"type": "Point", "coordinates": [144.959559, -37.798337]}, "properties": {"name": "Facility", "category": "Facility", "group": "indoor", "hours": "", "access": "", "address": "", "website": ""}}, {"type": "Feature", "geometry": {"type": "Point", "coordinates": [144.9595722, -37.798227]}, "properties": {"name": "Facility", "category": "Facility", "group": "indoor", "hours": "", "access": "", "address": "", "website": ""}}, {"type": "Feature", "geometry": {"type": "Point", "coordinates": [144.9617348, -37.7929792]}, "properties": {"name": "Dalton McCaughey Library", "category": "Library", "group": "indoor", "hours": "", "access": "", "address": "", "website": ""}}, {"type": "Feature", "geometry": {"type": "Point", "coordinates": [144.9629108, -37.7973892]}, "properties": {"name": "Architecture, Building & Planning Library", "category": "Library", "group": "indoor", "hours": "", "access": "", "address": "", "website": ""}}, {"type": "Feature", "geometry": {"type": "Point", "coordinates": [144.963595, -37.7986236]}, "properties": {"name": "Rowden White Library (Levels 2 & 3)", "category": "Library", "group": "indoor", "hours": "", "access": "staff;students", "address": "", "website": "https://umsu.unimelb.edu.au/things-to-do/library/"}}, {"type": "Feature", "geometry": {"type": "Point", "coordinates": [144.9663823, -37.8094703]}, "properties": {"name": "Facility", "category": "Facility", "group": "indoor", "hours": "", "access": "", "address": "", "website": ""}}, {"type": "Feature", "geometry": {"type": "Point", "coordinates": [144.9659025, -37.8169458]}, "properties": {"name": "City Library", "category": "Library", "group": "indoor", "hours": "", "access": "", "address": "", "website": "https://www.melbourne.vic.gov.au/"}}, {"type": "Feature", "geometry": {"type": "Point", "coordinates": [144.965496055451, -37.80969788317431]}, "properties": {"name": "State Library Victoria", "category": "Library", "group": "indoor", "hours": "Mo-Su 10:00-18:00", "access": "", "address": "328 Swanston Street Melbourne", "website": "https://www.slv.vic.gov.au"}}, {"type": "Feature", "geometry": {"type": "Point", "coordinates": [144.9639444, -37.8081589]}, "properties": {"name": "RMIT Swanston Library", "category": "Library", "group": "indoor", "hours": "", "access": "customers", "address": "", "website": "https://www.rmit.edu.au/library/borrowing-and-collections"}}, {"type": "Feature", "geometry": {"type": "Point", "coordinates": [144.9645969, -37.8099666]}, "properties": {"name": "Facility", "category": "Facility", "group": "indoor", "hours": "", "access": "", "address": "", "website": ""}}, {"type": "Feature", "geometry": {"type": "Point", "coordinates": [144.9645624, -37.8095522]}, "properties": {"name": "Facility", "category": "Facility", "group": "indoor", "hours": "", "access": "", "address": "", "website": ""}}, {"type": "Feature", "geometry": {"type": "Point", "coordinates": [144.9584163, -37.807721]}, "properties": {"name": "narrm ngarrgu Library and Family Services", "category": "Library", "group": "indoor", "hours": "", "access": "", "address": "", "website": "https://www.melbourne.vic.gov.au/narrm-ngarrgu-library-and-family-services"}}, {"type": "Feature", "geometry": {"type": "Point", "coordinates": [144.9568708, -37.8156051]}, "properties": {"name": "Legal Aid public law library", "category": "Library", "group": "indoor", "hours": "", "access": "", "address": "", "website": ""}}, {"type": "Feature", "geometry": {"type": "Point", "coordinates": [144.9583428, -37.8141788]}, "properties": {"name": "Law Library Victoria", "category": "Library", "group": "indoor", "hours": "", "access": "", "address": "", "website": ""}}, {"type": "Feature", "geometry": {"type": "Point", "coordinates": [144.949759, -37.803565]}, "properties": {"name": "North Melbourne Library", "category": "Library", "group": "indoor", "hours": "", "access": "", "address": "", "website": "https://www.melbourne.vic.gov.au/community/libraries/locations/Pages/locations.aspx"}}, {"type": "Feature", "geometry": {"type": "Point", "coordinates": [144.97086, -37.830484]}, "properties": {"name": "Christian Science Reading Room", "category": "Library", "group": "indoor", "hours": "", "access": "", "address": "", "website": ""}}, {"type": "Feature", "geometry": {"type": "Point", "coordinates": [144.9612198, -37.8255777]}, "properties": {"name": "Southbank Library at Boyd", "category": "Library", "group": "indoor", "hours": "", "access": "", "address": "", "website": "https://www.melbourne.vic.gov.au/community/libraries/locations/Pages/locations.aspx"}}, {"type": "Feature", "geometry": {"type": "Point", "coordinates": [144.95633996379144, -37.841343614557516]}, "properties": {"name": "Albert Park Library", "category": "Library", "group": "indoor", "hours": "", "access": "", "address": "319 Montague Street", "website": "https://library.portphillip.vic.gov.au/about-our-libraries/library-hours-and-locations/albert-park-library"}}, {"type": "Feature", "geometry": {"type": "Point", "coordinates": [144.9621219, -37.8498967]}, "properties": {"name": "Middle Park Library", "category": "Library", "group": "indoor", "hours": "", "access": "", "address": "", "website": ""}}, {"type": "Feature", "geometry": {"type": "Point", "coordinates": [144.9595734294727, -37.848811605053164]}, "properties": {"name": "Carmelite Library", "category": "Library", "group": "indoor", "hours": "", "access": "", "address": "214-216 Richardson Street", "website": ""}}, {"type": "Feature", "geometry": {"type": "Point", "coordinates": [144.944496, -37.835771]}, "properties": {"name": "Port Melbourne Library", "category": "Library", "group": "indoor", "hours": "", "access": "", "address": "", "website": "https://library.portphillip.vic.gov.au/Home"}}, {"type": "Feature", "geometry": {"type": "Point", "coordinates": [144.9603726, -37.8347011]}, "properties": {"name": "Emerald Hill Library", "category": "Library", "group": "indoor", "hours": "", "access": "", "address": "", "website": "https://library.portphillip.vic.gov.au/"}}, {"type": "Feature", "geometry": {"type": "Point", "coordinates": [144.98888386291014, -37.86781015565384]}, "properties": {"name": "St Kilda Public Library", "category": "Library", "group": "indoor", "hours": "Mo-Tu 10:00-20:00; We-Fr 10:00-18:00; Sa-Su 10:00-17:00", "access": "", "address": "", "website": "https://www.portphillip.vic.gov.au/library.html"}}, {"type": "Feature", "geometry": {"type": "Point", "coordinates": [144.98748760386593, -37.845753852834754]}, "properties": {"name": "Braille and Talking Book Library", "category": "Library", "group": "indoor", "hours": "", "access": "", "address": "31-51 Commercial Road", "website": ""}}, {"type": "Feature", "geometry": {"type": "Point", "coordinates": [144.9931092, -37.8496416]}, "properties": {"name": "Prahran Library", "category": "Library", "group": "indoor", "hours": "", "access": "", "address": "", "website": "https://www.stonnington.vic.gov.au/www/html/495-library-home.asp"}}, {"type": "Feature", "geometry": {"type": "Point", "coordinates": [144.9926394, -37.8478134]}, "properties": {"name": "Facility", "category": "Facility", "group": "indoor", "hours": "", "access": "", "address": "", "website": ""}}, {"type": "Feature", "geometry": {"type": "Point", "coordinates": [144.9994218, -37.8402252]}, "properties": {"name": "Toorak/South Yarra Library", "category": "Library", "group": "indoor", "hours": "", "access": "", "address": "", "website": "http://www.stonnington.vic.gov.au/library/Visit-us#ToorakSouthYarraLibrary"}}, {"type": "Feature", "geometry": {"type": "Point", "coordinates": [144.9958633, -37.7973804]}, "properties": {"name": "Collingwood Toy Library", "category": "Library", "group": "indoor", "hours": "", "access": "", "address": "", "website": "https://www.collingwoodtoylibrary.net.au/"}}, {"type": "Feature", "geometry": {"type": "Point", "coordinates": [144.9930008995931, -37.804539734060974]}, "properties": {"name": "Collingwood Library", "category": "Library", "group": "indoor", "hours": "Mo 13:00-18:00; Tu 10:00-18:00; We 13:00-20:00; Th 10:00-20:00; Fr 10:00-18:00; Sa 10:00-15:00; Su 14:00-17:00", "access": "", "address": "7-11 Stanton Street Abbotsford", "website": ""}}, {"type": "Feature", "geometry": {"type": "Point", "coordinates": [144.97160602383062, -37.78944109678108]}, "properties": {"name": "Carlton Library", "category": "Library", "group": "indoor", "hours": "Mo,We,Fr 10:00-18:00; Tu,Th 10:00-20:00; Sa 10:00-16:00; Su 14:00-17:00", "access": "", "address": "667 Rathdowne Street Carlton North", "website": "https://library.yarracity.vic.gov.au/hours-and-locations/carlton-library"}}, {"type": "Feature", "geometry": {"type": "Point", "coordinates": [144.9796333, -37.8019122]}, "properties": {"name": "Fitzroy Library", "category": "Library", "group": "indoor", "hours": "", "access": "", "address": "", "website": "https://www.yarracity.vic.gov.au/Libraries/"}}, {"type": "Feature", "geometry": {"type": "Point", "coordinates": [144.9788193, -37.8076489]}, "properties": {"name": "Library", "category": "Library", "group": "indoor", "hours": "", "access": "", "address": "", "website": ""}}, {"type": "Feature", "geometry": {"type": "Point", "coordinates": [144.98233988508966, -37.80040355208309]}, "properties": {"name": "Russian House Library", "category": "Library", "group": "indoor", "hours": "", "access": "", "address": "114 Greeves Street", "website": ""}}, {"type": "Feature", "geometry": {"type": "Point", "coordinates": [144.98282720313247, -37.78478946281488]}, "properties": {"name": "Bargoonga Nganjin North Fitzroy Library", "category": "Library", "group": "indoor", "hours": "Mo,Tu,Fr 10:00-18:00; We-Th 10:00-20:00; Sa 10:00-16:00; Su 14:00-17:00", "access": "yes", "address": "182-186 St Georges Road Fitzroy North", "website": "https://library.yarracity.vic.gov.au/hours-and-locations/bargoonga-nganjin"}}, {"type": "Feature", "geometry": {"type": "Point", "coordinates": [144.99829124243954, -37.825314089840425]}, "properties": {"name": "Richmond Library", "category": "Library", "group": "indoor", "hours": "", "access": "", "address": "415-417 Church Street", "website": ""}}, {"type": "Feature", "geometry": {"type": "Point", "coordinates": [145.0217950326386, -37.82821147401358]}, "properties": {"name": "Burnley Library Building (914)", "category": "Library", "group": "indoor", "hours": "", "access": "", "address": "", "website": ""}}, {"type": "Feature", "geometry": {"type": "Point", "coordinates": [145.03199838058234, -37.856676558656645]}, "properties": {"name": "Malvern Library", "category": "Library", "group": "indoor", "hours": "Mo-Th 10:00-20:00; Fr 10:00-18:00; Sa 10:00-17:00; Su 14:00-17:00; PH off", "access": "", "address": "1255 High Street Malvern", "website": "www.stonnington.vic.gov.au/library/Visit-us#MalvernLibrary"}}, {"type": "Feature", "geometry": {"type": "Point", "coordinates": [145.08163789104876, -37.879715554331014]}, "properties": {"name": "Phoenix Park Library", "category": "Library", "group": "indoor", "hours": "", "access": "", "address": "", "website": ""}}, {"type": "Feature", "geometry": {"type": "Point", "coordinates": [144.9013832, -37.7932678]}, "properties": {"name": "Library", "category": "Library", "group": "indoor", "hours": "", "access": "", "address": "", "website": ""}}, {"type": "Feature", "geometry": {"type": "Point", "coordinates": [144.89586646220678, -37.80012669999993]}, "properties": {"name": "Footscray Library", "category": "Library", "group": "indoor", "hours": "Mo-Fr 10:00-20:00, Sa 10:00-17:00, Su 14:00-17:00", "access": "", "address": "56 Paisley Street Footscray", "website": "https://www.maribyrnong.vic.gov.au/library"}}, {"type": "Feature", "geometry": {"type": "Point", "coordinates": [144.89918771263888, -37.803495862735765]}, "properties": {"name": "Footscray Mechanics' Institute Library", "category": "Library", "group": "indoor", "hours": "We-Fr 10:00-16:00", "access": "", "address": "209 Nicholson Street Footscray", "website": "https://www.footscraymechanicsinstitute.org.au/"}}, {"type": "Feature", "geometry": {"type": "Point", "coordinates": [144.886425912152, -37.77335697744579]}, "properties": {"name": "Maribyrnong Library", "category": "Library", "group": "indoor", "hours": "Mo-Fr 10:00-18:00; Sa 10:00-14:00", "access": "", "address": "Rosamond Road Maribyrnong", "website": "https://www.maribyrnong.vic.gov.au/library"}}, {"type": "Feature", "geometry": {"type": "Point", "coordinates": [144.8781317, -37.7976543]}, "properties": {"name": "West Footscray Library", "category": "Library", "group": "indoor", "hours": "", "access": "", "address": "", "website": "https://maribyrnong.vic.gov.au"}}, {"type": "Feature", "geometry": {"type": "Point", "coordinates": [144.9681839537911, -37.798027722047024]}, "properties": {"name": "Lygon Court Shopping Centre", "category": "Mall", "group": "indoor", "hours": "", "access": "", "address": "Lygon Street Carlton", "website": ""}}, {"type": "Feature", "geometry": {"type": "Point", "coordinates": [144.95189418871493, -37.81576959135409]}, "properties": {"name": "Spencer Outlet Centre", "category": "Mall", "group": "indoor", "hours": "", "access": "", "address": "Spencer Street", "website": "https://www.spenceroutletcentre.com.au/"}}, {"type": "Feature", "geometry": {"type": "Point", "coordinates": [144.9380513284908, -37.81280286517471]}, "properties": {"name": "The District Docklands", "category": "Mall", "group": "indoor", "hours": "", "access": "", "address": "", "website": "https://www.thedistrictdocklands.com.au/"}}, {"type": "Feature", "geometry": {"type": "Point", "coordinates": [144.91486089566692, -37.78218843257423]}, "properties": {"name": "Showgrounds Village", "category": "Mall", "group": "indoor", "hours": "", "access": "", "address": "", "website": ""}}, {"type": "Feature", "geometry": {"type": "Point", "coordinates": [144.96384130829503, -37.812413161916986]}, "properties": {"name": "Emporium", "category": "Mall", "group": "indoor", "hours": "Mo-Su 10:00-19:00", "access": "", "address": "Lonsdale Street Melbourne", "website": "https://www.emporiummelbourne.com.au/"}}, {"type": "Feature", "geometry": {"type": "Point", "coordinates": [144.96292138077604, -37.81490956813558]}, "properties": {"name": "Galleria", "category": "Mall", "group": "indoor", "hours": "", "access": "", "address": "", "website": "https://www.galleria.com.au/"}}, {"type": "Feature", "geometry": {"type": "Point", "coordinates": [144.96328662481687, -37.813599552244895]}, "properties": {"name": "Melbourne's GPO", "category": "Mall", "group": "indoor", "hours": "Mo-Th 10:00-18:00; Fr 10:00-20:00; Sa 10:00-18:00; Su 11:00-17:00", "access": "", "address": "Bourke Street", "website": "https://www.melbournesgpo.com/"}}, {"type": "Feature", "geometry": {"type": "Point", "coordinates": [144.96458927621762, -37.81443039915719]}, "properties": {"name": "Melbourne Walk", "category": "Mall", "group": "indoor", "hours": "", "access": "", "address": "", "website": ""}}, {"type": "Feature", "geometry": {"type": "Point", "coordinates": [144.96671266499294, -37.816695881314295]}, "properties": {"name": "Cathedral Arcade", "category": "Mall", "group": "indoor", "hours": "", "access": "", "address": "Swanston Street Melbourne", "website": ""}}, {"type": "Feature", "geometry": {"type": "Point", "coordinates": [144.96492904491186, -37.81534024059111]}, "properties": {"name": "Collins Arcade", "category": "Mall", "group": "indoor", "hours": "", "access": "", "address": "Collins Street Melbourne", "website": "https://www.collinsarcade.com.au/"}}, {"type": "Feature", "geometry": {"type": "Point", "coordinates": [144.9644337865238, -37.81559478494553]}, "properties": {"name": "Block Arcade", "category": "Mall", "group": "indoor", "hours": "Mo-Th 08:00-18:00; Fr 08:00-20:00; Sa 08:00-17:00; Su 09:00-17:00", "access": "", "address": "Collins Street Melbourne", "website": "https://theblock.com.au/"}}, {"type": "Feature", "geometry": {"type": "Point", "coordinates": [144.96570487756563, -37.810677294875376]}, "properties": {"name": "QV", "category": "Mall", "group": "indoor", "hours": "", "access": "", "address": "", "website": "https://www.qv.com.au/"}}, {"type": "Feature", "geometry": {"type": "Point", "coordinates": [144.96289831676035, -37.81069324354108]}, "properties": {"name": "Melbourne Central", "category": "Mall", "group": "indoor", "hours": "Su-We 10:00-19:00; Th-Fr 10:00-21:00; Sa 10:00-19:00", "access": "", "address": "Melbourne", "website": "https://www.melbournecentral.com.au/"}}, {"type": "Feature", "geometry": {"type": "Point", "coordinates": [144.96621782341282, -37.82023258031905]}, "properties": {"name": "Southgate", "category": "Mall", "group": "indoor", "hours": "", "access": "", "address": "", "website": "https://www.southgatemelbourne.com.au/"}}, {"type": "Feature", "geometry": {"type": "Point", "coordinates": [144.94950432018584, -37.825042625662554]}, "properties": {"name": "South Wharf DFO", "category": "Mall", "group": "indoor", "hours": "Sa-Th 10:00-18:00; Fr 10:00-21:00", "access": "", "address": "Convention Centre Place South Wharf", "website": "https://www.dfo.com.au/southwharf/"}}, {"type": "Feature", "geometry": {"type": "Point", "coordinates": [144.94151264061225, -37.838717756600296]}, "properties": {"name": "Mall", "category": "Mall", "group": "indoor", "hours": "", "access": "", "address": "", "website": ""}}, {"type": "Feature", "geometry": {"type": "Point", "coordinates": [144.95739116735837, -37.83076166635358]}, "properties": {"name": "South Melbourne Central", "category": "Mall", "group": "indoor", "hours": "", "access": "", "address": "Cecil Street South Melbourne", "website": "https://www.southmelbournecentral.com.au/"}}, {"type": "Feature", "geometry": {"type": "Point", "coordinates": [144.98060441782752, -37.86896009646943]}, "properties": {"name": "Acland Court", "category": "Mall", "group": "indoor", "hours": "", "access": "", "address": "", "website": "https://aclandcourt.com.au/"}}, {"type": "Feature", "geometry": {"type": "Point", "coordinates": [145.0272365522535, -37.86300896820525]}, "properties": {"name": "Malvern Central Shopping Centre", "category": "Mall", "group": "indoor", "hours": "", "access": "", "address": "Wattletree Road", "website": "https://www.malverncentralshopping.com.au/"}}, {"type": "Feature", "geometry": {"type": "Point", "coordinates": [144.993595731044, -37.84722420045796]}, "properties": {"name": "Pran Central", "category": "Mall", "group": "indoor", "hours": "", "access": "", "address": "", "website": "www.prancentral.com.au"}}, {"type": "Feature", "geometry": {"type": "Point", "coordinates": [145.00834289675066, -37.840529528753514]}, "properties": {"name": "Tok H Centre", "category": "Mall", "group": "indoor", "hours": "", "access": "", "address": "", "website": "https://tokh.com.au/"}}, {"type": "Feature", "geometry": {"type": "Point", "coordinates": [144.98992385379916, -37.8384727787915]}, "properties": {"name": "South Yarra Arcade", "category": "Mall", "group": "indoor", "hours": "", "access": "", "address": "Toorak Road South Yarra", "website": ""}}, {"type": "Feature", "geometry": {"type": "Point", "coordinates": [144.99646583233087, -37.8392336672582]}, "properties": {"name": "Como Centre", "category": "Mall", "group": "indoor", "hours": "", "access": "", "address": "Toorak Road", "website": "https://www.comocentre.com.au/"}}, {"type": "Feature", "geometry": {"type": "Point", "coordinates": [144.99584119966136, -37.842607090066906]}, "properties": {"name": "Jam Factory", "category": "Mall", "group": "indoor", "hours": "Mo-Su 10:00-00:00", "access": "", "address": "Chapel Street", "website": "https://thejamfactory.com.au/"}}, {"type": "Feature", "geometry": {"type": "Point", "coordinates": [144.9956727177411, -37.80936379342952]}, "properties": {"name": "The Hive", "category": "Mall", "group": "indoor", "hours": "", "access": "", "address": "Victoria Street Abbotsford", "website": ""}}, {"type": "Feature", "geometry": {"type": "Point", "coordinates": [145.0108718761478, -37.81314018181481]}, "properties": {"name": "Victoria Gardens Shopping Centre", "category": "Mall", "group": "indoor", "hours": "", "access": "", "address": "Victoria Street", "website": "https://www.vicgardenssc.com.au/"}}, {"type": "Feature", "geometry": {"type": "Point", "coordinates": [145.08296846139078, -37.88645636709274]}, "properties": {"name": "Chadstone Shopping Centre", "category": "Mall", "group": "indoor", "hours": "", "access": "", "address": "", "website": "https://www.chadstone.com.au/"}}, {"type": "Feature", "geometry": {"type": "Point", "coordinates": [144.8613721233188, -37.79375991663803]}, "properties": {"name": "Central West Shopping Centre", "category": "Mall", "group": "indoor", "hours": "", "access": "", "address": "Ashley Street", "website": "https://www.centralwest.com.au/"}}, {"type": "Feature", "geometry": {"type": "Point", "coordinates": [144.8643675508302, -37.7821059001895]}, "properties": {"name": "Braybrook Plaza", "category": "Mall", "group": "indoor", "hours": "", "access": "", "address": "Ballarat Road", "website": ""}}, {"type": "Feature", "geometry": {"type": "Point", "coordinates": [144.85096048191986, -37.77843385262967]}, "properties": {"name": "HomeCo", "category": "Mall", "group": "indoor", "hours": "", "access": "", "address": "Ballarat Road Braybrook", "website": "https://www.home-co.com.au/centre/home-consortium-braybrook/"}}, {"type": "Feature", "geometry": {"type": "Point", "coordinates": [144.89746288689216, -37.80120264918571]}, "properties": {"name": "18 Albert Footscray Plaza", "category": "Mall", "group": "indoor", "hours": "", "access": "", "address": "", "website": ""}}, {"type": "Feature", "geometry": {"type": "Point", "coordinates": [144.88881914457957, -37.77333889445608]}, "properties": {"name": "Highpoint Shopping Centre", "category": "Mall", "group": "indoor", "hours": "", "access": "", "address": "Rosamond Road", "website": "https://www.highpoint.com.au/"}}]}